[{"OBJECT_NAME":"STARLINK-30999","OBJECT_ID":"2023-192W","EPOCH":"2026-03-18T02:42:15.924384","MEAN_MOTION":15.30191573,"ECCENTRICITY":0.00011564,"INCLINATION":53.1622,"RA_OF_ASC_NODE":13.6503,"ARG_OF_PERICENTER":91.8083,"MEAN_ANOMALY":268.3051,"EPHEMERIS_TYPE":0,"CLASSIFICATION_TYPE":"U","NORAD_CAT_ID":58551,"ELEMENT_SET_NO":999,"REV_AT_EPOCH":12741,"BSTAR":-2.0223616e-5,"MEAN_MOTION_DOT":-9.58e-6,"MEAN_MOTION_DDOT":0},{"OBJECT_NAME":"STARLINK-31046","OBJECT_ID":"2023-192X","EPOCH":"2026-03-18T01:43:03.450144","MEAN_MOTION":15.30186777,"ECCENTRICITY":8.711e-5,"INCLINATION":53.1619,"RA_OF_ASC_NODE":24.1581,"ARG_OF_PERICENTER":65.4188,"MEAN_ANOMALY":294.6904,"EPHEMERIS_TYPE":0,"CLASSIFICATION_TYPE":"U","NORAD_CAT_ID":58552,"ELEMENT_SET_NO":999,"REV_AT_EPOCH":12726,"BSTAR":6.9115498e-5,"MEAN_MOTION_DOT":1.688e-5,"MEAN_MOTION_DDOT":0},{"OBJECT_NAME":"STARLINK-31044","OBJECT_ID":"2023-200A","EPOCH":"2026-03-18T19:04:58.717056","MEAN_MOTION":15.26749272,"ECCENTRICITY":0.000114,"INCLINATION":42.9985,"RA_OF_ASC_NODE":117.3899,"ARG_OF_PERICENTER":269.5641,"MEAN_ANOMALY":90.508,"EPHEMERIS_TYPE":0,"CLASSIFICATION_TYPE":"U","NORAD_CAT_ID":58589,"ELEMENT_SET_NO":999,"REV_AT_EPOCH":12500,"BSTAR":2.5395e-5,"MEAN_MOTION_DOT":4.22e-6,"MEAN_MOTION_DDOT":0},{"OBJECT_NAME":"STARLINK-31062","OBJECT_ID":"2023-200B","EPOCH":"2026-03-18T19:55:28.369344","MEAN_MOTION":15.26751957,"ECCENTRICITY":0.0001818,"INCLINATION":43.0032,"RA_OF_ASC_NODE":120.2199,"ARG_OF_PERICENTER":265.5414,"MEAN_ANOMALY":94.523,"EPHEMERIS_TYPE":0,"CLASSIFICATION_TYPE":"U","NORAD_CAT_ID":58590,"ELEMENT_SET_NO":999,"REV_AT_EPOCH":12497,"BSTAR":6.226e-6,"MEAN_MOTION_DOT":-9.3e-7,"MEAN_MOTION_DDOT":0},{"OBJECT_NAME":"STARLINK-31096","OBJECT_ID":"2023-200D","EPOCH":"2026-03-18T19:10:10.425792","MEAN_MOTION":15.24230294,"ECCENTRICITY":0.0001431,"INCLINATION":43.0023,"RA_OF_ASC_NODE":118.2965,"ARG_OF_PERICENTER":55.0964,"MEAN_ANOMALY":305.0021,"EPHEMERIS_TYPE":0,"CLASSIFICATION_TYPE":"U","NORAD_CAT_ID":58592,"ELEMENT_SET_NO":999,"REV_AT_EPOCH":12499,"BSTAR":0.00085108,"MEAN_MOTION_DOT":0.00020974,"MEAN_MOTION_DDOT":0},{"OBJECT_NAME":"STARLINK-31094","OBJECT_ID":"2023-200E","EPOCH":"2026-03-18T12:27:51.318144","MEAN_MOTION":15.26747432,"ECCENTRICITY":0.0001298,"INCLINATION":43.0011,"RA_OF_ASC_NODE":118.787,"ARG_OF_PERICENTER":270.5305,"MEAN_ANOMALY":89.5398,"EPHEMERIS_TYPE":0,"CLASSIFICATION_TYPE":"U","NORAD_CAT_ID":58593,"ELEMENT_SET_NO":999,"REV_AT_EPOCH":12496,"BSTAR":0.00012546437,"MEAN_MOTION_DOT":3.108e-5,"MEAN_MOTION_DDOT":0},{"OBJECT_NAME":"STARLINK-31075","OBJECT_ID":"2023-200F","EPOCH":"2026-03-18T19:51:25.803072","MEAN_MOTION":15.26742687,"ECCENTRICITY":0.0001781,"INCLINATION":43.0071,"RA_OF_ASC_NODE":116.7855,"ARG_OF_PERICENTER":263.2305,"MEAN_ANOMALY":96.8344,"EPHEMERIS_TYPE":0,"CLASSIFICATION_TYPE":"U","NORAD_CAT_ID":58594,"ELEMENT_SET_NO":999,"REV_AT_EPOCH":12501,"BSTAR":3.4819e-5,"MEAN_MOTION_DOT":6.74e-6,"MEAN_MOTION_DDOT":0},{"OBJECT_NAME":"STARLINK-30857","OBJECT_ID":"2023-200G","EPOCH":"2026-03-18T19:01:50.389248","MEAN_MOTION":15.26749349,"ECCENTRICITY":0.0001502,"INCLINATION":42.9987,"RA_OF_ASC_NODE":117.3949,"ARG_OF_PERICENTER":275.1067,"MEAN_ANOMALY":84.9613,"EPHEMERIS_TYPE":0,"CLASSIFICATION_TYPE":"U","NORAD_CAT_ID":58595,"ELEMENT_SET_NO":999,"REV_AT_EPOCH":12500,"BSTAR":3.2059e-5,"MEAN_MOTION_DOT":6.0e-6,"MEAN_MOTION_DDOT":0},{"OBJECT_NAME":"STARLINK-31059","OBJECT_ID":"2023-200H","EPOCH":"2026-03-18T17:31:12.975456","MEAN_MOTION":15.27590198,"ECCENTRICITY":0.0001233,"INCLINATION":43.0008,"RA_OF_ASC_NODE":321.0714,"ARG_OF_PERICENTER":239.9012,"MEAN_ANOMALY":120.1718,"EPHEMERIS_TYPE":0,"CLASSIFICATION_TYPE":"U","NORAD_CAT_ID":58596,"ELEMENT_SET_NO":999,"REV_AT_EPOCH":12683,"BSTAR":7.3033e-5,"MEAN_MOTION_DOT":1.749e-5,"MEAN_MOTION_DDOT":0},{"OBJECT_NAME":"STARLINK-31087","OBJECT_ID":"2023-200J","EPOCH":"2026-03-18T19:40:24.148416","MEAN_MOTION":15.26751753,"ECCENTRICITY":6.16e-5,"INCLINATION":43.0012,"RA_OF_ASC_NODE":116.7329,"ARG_OF_PERICENTER":287.7553,"MEAN_ANOMALY":72.3231,"EPHEMERIS_TYPE":0,"CLASSIFICATION_TYPE":"U","NORAD_CAT_ID":58597,"ELEMENT_SET_NO":999,"REV_AT_EPOCH":12490,"BSTAR":0.00017943,"MEAN_MOTION_DOT":4.558e-5,"MEAN_MOTION_DDOT":0},{"OBJECT_NAME":"STARLINK-31079","OBJECT_ID":"2023-200K","EPOCH":"2026-03-18T20:00:01.999008","MEAN_MOTION":15.41502256,"ECCENTRICITY":0.00263,"INCLINATION":42.984,"RA_OF_ASC_NODE":87.8771,"ARG_OF_PERICENTER":94.3696,"MEAN_ANOMALY":230.0746,"EPHEMERIS_TYPE":0,"CLASSIFICATION_TYPE":"U","NORAD_CAT_ID":58598,"ELEMENT_SET_NO":999,"REV_AT_EPOCH":580,"BSTAR":0.0022511,"MEAN_MOTION_DOT":0.00098695,"MEAN_MOTION_DDOT":0},{"OBJECT_NAME":"STARLINK-31052","OBJECT_ID":"2023-200M","EPOCH":"2026-03-18T20:00:46.366272","MEAN_MOTION":15.26763452,"ECCENTRICITY":0.0001928,"INCLINATION":43.0052,"RA_OF_ASC_NODE":116.8388,"ARG_OF_PERICENTER":243.2248,"MEAN_ANOMALY":116.8406,"EPHEMERIS_TYPE":0,"CLASSIFICATION_TYPE":"U","NORAD_CAT_ID":58600,"ELEMENT_SET_NO":999,"REV_AT_EPOCH":12501,"BSTAR":-9.2125e-5,"MEAN_MOTION_DOT":-2.732e-5,"MEAN_MOTION_DDOT":0},{"OBJECT_NAME":"STARLINK-31074","OBJECT_ID":"2023-200N","EPOCH":"2026-03-18T12:24:16.773984","MEAN_MOTION":15.26752748,"ECCENTRICITY":0.00016084,"INCLINATION":43.0015,"RA_OF_ASC_NODE":118.7626,"ARG_OF_PERICENTER":269.593,"MEAN_ANOMALY":90.4737,"EPHEMERIS_TYPE":0,"CLASSIFICATION_TYPE":"U","NORAD_CAT_ID":58601,"ELEMENT_SET_NO":999,"REV_AT_EPOCH":12496,"BSTAR":7.4298497e-5,"MEAN_MOTION_DOT":1.734e-5,"MEAN_MOTION_DDOT":0},{"OBJECT_NAME":"STARLINK-31071","OBJECT_ID":"2023-200P","EPOCH":"2026-03-18T16:03:17.767296","MEAN_MOTION":15.27587919,"ECCENTRICITY":0.0001277,"INCLINATION":43.0016,"RA_OF_ASC_NODE":317.9703,"ARG_OF_PERICENTER":245.0833,"MEAN_ANOMALY":114.9886,"EPHEMERIS_TYPE":0,"CLASSIFICATION_TYPE":"U","NORAD_CAT_ID":58602,"ELEMENT_SET_NO":999,"REV_AT_EPOCH":12686,"BSTAR":2.454e-5,"MEAN_MOTION_DOT":4.13e-6,"MEAN_MOTION_DDOT":0},{"OBJECT_NAME":"STARLINK-31080","OBJECT_ID":"2023-200Q","EPOCH":"2026-03-18T19:53:26.332800","MEAN_MOTION":15.26757626,"ECCENTRICITY":0.0001892,"INCLINATION":43.0059,"RA_OF_ASC_NODE":116.7893,"ARG_OF_PERICENTER":259.6781,"MEAN_ANOMALY":100.3857,"EPHEMERIS_TYPE":0,"CLASSIFICATION_TYPE":"U","NORAD_CAT_ID":58603,"ELEMENT_SET_NO":999,"REV_AT_EPOCH":12482,"BSTAR":0.0001321,"MEAN_MOTION_DOT":3.287e-5,"MEAN_MOTION_DDOT":0},{"OBJECT_NAME":"STARLINK-31088","OBJECT_ID":"2023-200R","EPOCH":"2026-03-18T10:52:51.003840","MEAN_MOTION":15.2674522,"ECCENTRICITY":0.0001327,"INCLINATION":43.0008,"RA_OF_ASC_NODE":119.1287,"ARG_OF_PERICENTER":271.8013,"MEAN_ANOMALY":88.2686,"EPHEMERIS_TYPE":0,"CLASSIFICATION_TYPE":"U","NORAD_CAT_ID":58604,"ELEMENT_SET_NO":999,"REV_AT_EPOCH":12495,"BSTAR":7.1663089e-5,"MEAN_MOTION_DOT":1.663e-5,"MEAN_MOTION_DDOT":0}]
