STARLINK-30999          
1 58551U 23192W   26077.11268431 -.00000958  00000+0 -20224-4 0  9996
2 58551  53.1622  13.6503 0001156  91.8083 268.3051 15.30191573127410
STARLINK-31046          
1 58552U 23192X   26077.07156771  .00001688  00000+0  69115-4 0  9996
2 58552  53.1619  24.1581 0000871  65.4188 294.6904 15.30186777127268
STARLINK-31044          
1 58589U 23200A   26077.79512404  .00000422  00000+0  25395-4 0  9991
2 58589  42.9985 117.3899 0001140 269.5641  90.5080 15.26749272125006
STARLINK-31062          
1 58590U 23200B   26077.83018946 -.00000093  00000+0  62260-5 0  9998
2 58590  43.0032 120.2199 0001818 265.5414  94.5230 15.26751957124974
STARLINK-31096          
1 58592U 23200D   26077.79873178  .00020974  00000+0  85108-3 0  9994
2 58592  43.0023 118.2965 0001431  55.0964 305.0021 15.24230294124991
STARLINK-31094          
1 58593U 23200E   26077.51934396  .00003108  00000+0  12546-3 0  9991
2 58593  43.0011 118.7870 0001298 270.5305  89.5398 15.26747432124960
STARLINK-31075          
1 58594U 23200F   26077.82738198  .00000674  00000+0  34819-4 0  9991
2 58594  43.0071 116.7855 0001781 263.2305  96.8344 15.26742687125010
STARLINK-30857          
1 58595U 23200G   26077.79294432  .00000600  00000+0  32059-4 0  9999
2 58595  42.9987 117.3949 0001502 275.1067  84.9613 15.26749349125002
STARLINK-31059          
1 58596U 23200H   26077.73001129  .00001749  00000+0  73033-4 0  9995
2 58596  43.0008 321.0714 0001233 239.9012 120.1718 15.27590198126830
STARLINK-31087          
1 58597U 23200J   26077.81972394  .00004558  00000+0  17943-3 0  9994
2 58597  43.0012 116.7329 0000616 287.7553  72.3231 15.26751753124901
STARLINK-31079          
1 58598U 23200K   26077.83335647  .00098695  00000+0  22511-2 0  9992
2 58598  42.9840  87.8771 0026300  94.3696 230.0746 15.41502256  5806
STARLINK-31052          
1 58600U 23200M   26077.83386998 -.00002732  00000+0 -92125-4 0  9990
2 58600  43.0052 116.8388 0001928 243.2248 116.8406 15.26763452125011
STARLINK-31074          
1 58601U 23200N   26077.51686081  .00001734  00000+0  74298-4 0  9992
2 58601  43.0015 118.7626 0001608 269.5930  90.4737 15.26752748124964
STARLINK-31071          
1 58602U 23200P   26077.66895564  .00000413  00000+0  24540-4 0  9995
2 58602  43.0016 317.9703 0001277 245.0833 114.9886 15.27587919126863
STARLINK-31080          
1 58603U 23200Q   26077.82877700  .00003287  00000+0  13210-3 0  9999
2 58603  43.0059 116.7893 0001892 259.6781 100.3857 15.26757626124826
STARLINK-31088          
1 58604U 23200R   26077.45336810  .00001663  00000+0  71663-4 0  9994
2 58604  43.0008 119.1287 0001327 271.8013  88.2686 15.26745220124957
